[{"OBJECT_NAME":"ONEWEB-0355","OBJECT_ID":"2021-083AJ","EPOCH":"2026-01-31T05:44:11.302944","MEAN_MOTION":13.13471173,"ECCENTRICITY":0.00017417,"INCLINATION":87.9006,"RA_OF_ASC_NODE":347.47,"ARG_OF_PERICENTER":88.5477,"MEAN_ANOMALY":271.5851,"EPHEMERIS_TYPE":0,"CLASSIFICATION_TYPE":"U","NORAD_CAT_ID":49218,"ELEMENT_SET_NO":999,"REV_AT_EPOCH":21292,"BSTAR":0.00086353348,"MEAN_MOTION_DOT":3.28e-6,"MEAN_MOTION_DDOT":0},{"OBJECT_NAME":"ONEWEB-0357","OBJECT_ID":"2021-083AK","EPOCH":"2026-01-31T05:41:49.561152","MEAN_MOTION":13.20775158,"ECCENTRICITY":0.0001475,"INCLINATION":87.9221,"RA_OF_ASC_NODE":301.7608,"ARG_OF_PERICENTER":79.435,"MEAN_ANOMALY":280.6949,"EPHEMERIS_TYPE":0,"CLASSIFICATION_TYPE":"U","NORAD_CAT_ID":49219,"ELEMENT_SET_NO":999,"REV_AT_EPOCH":21873,"BSTAR":0.00047695074,"MEAN_MOTION_DOT":2.07e-6,"MEAN_MOTION_DDOT":0},{"OBJECT_NAME":"ONEWEB-0332","OBJECT_ID":"2021-090A","EPOCH":"2026-01-31T06:47:08.112192","MEAN_MOTION":13.1450403,"ECCENTRICITY":0.00014902,"INCLINATION":87.9019,"RA_OF_ASC_NODE":317.0035,"ARG_OF_PERICENTER":74.1186,"MEAN_ANOMALY":286.0108,"EPHEMERIS_TYPE":0,"CLASSIFICATION_TYPE":"U","NORAD_CAT_ID":49279,"ELEMENT_SET_NO":999,"REV_AT_EPOCH":20959,"BSTAR":-0.00017441738,"MEAN_MOTION_DOT":-5.2e-7,"MEAN_MOTION_DDOT":0},{"OBJECT_NAME":"ONEWEB-0347","OBJECT_ID":"2021-090B","EPOCH":"2026-01-31T07:17:16.089216","MEAN_MOTION":13.20770011,"ECCENTRICITY":0.00015864,"INCLINATION":87.9221,"RA_OF_ASC_NODE":301.756,"ARG_OF_PERICENTER":67.4746,"MEAN_ANOMALY":292.6555,"EPHEMERIS_TYPE":0,"CLASSIFICATION_TYPE":"U","NORAD_CAT_ID":49280,"ELEMENT_SET_NO":999,"REV_AT_EPOCH":21297,"BSTAR":-2.69566e-6,"MEAN_MOTION_DOT":1.2e-7,"MEAN_MOTION_DDOT":0},{"OBJECT_NAME":"ONEWEB-0349","OBJECT_ID":"2021-090C","EPOCH":"2026-01-31T06:13:38.805024","MEAN_MOTION":13.20774074,"ECCENTRICITY":0.00016591,"INCLINATION":87.9225,"RA_OF_ASC_NODE":301.7646,"ARG_OF_PERICENTER":79.4677,"MEAN_ANOMALY":280.6644,"EPHEMERIS_TYPE":0,"CLASSIFICATION_TYPE":"U","NORAD_CAT_ID":49281,"ELEMENT_SET_NO":999,"REV_AT_EPOCH":21175,"BSTAR":6.7603758e-5,"MEAN_MOTION_DOT":4.0e-7,"MEAN_MOTION_DDOT":0},{"OBJECT_NAME":"ONEWEB-0353","OBJECT_ID":"2021-090D","EPOCH":"2026-01-31T06:35:43.713600","MEAN_MOTION":13.1450328,"ECCENTRICITY":0.0001497,"INCLINATION":87.9032,"RA_OF_ASC_NODE":316.9961,"ARG_OF_PERICENTER":69.9872,"MEAN_ANOMALY":290.1418,"EPHEMERIS_TYPE":0,"CLASSIFICATION_TYPE":"U","NORAD_CAT_ID":49282,"ELEMENT_SET_NO":999,"REV_AT_EPOCH":20959,"BSTAR":-0.00023672858,"MEAN_MOTION_DOT":-7.5e-7,"MEAN_MOTION_DDOT":0},{"OBJECT_NAME":"ONEWEB-0356","OBJECT_ID":"2021-090E","EPOCH":"2026-01-31T06:11:23.075808","MEAN_MOTION":13.20775088,"ECCENTRICITY":0.00022666,"INCLINATION":87.9223,"RA_OF_ASC_NODE":301.7587,"ARG_OF_PERICENTER":57.4268,"MEAN_ANOMALY":302.7084,"EPHEMERIS_TYPE":0,"CLASSIFICATION_TYPE":"U","NORAD_CAT_ID":49283,"ELEMENT_SET_NO":999,"REV_AT_EPOCH":21175,"BSTAR":0.00062242526,"MEAN_MOTION_DOT":2.66e-6,"MEAN_MOTION_DDOT":0},{"OBJECT_NAME":"ONEWEB-0358","OBJECT_ID":"2021-090F","EPOCH":"2026-01-31T06:54:33.195744","MEAN_MOTION":13.20774115,"ECCENTRICITY":0.00017878,"INCLINATION":87.9225,"RA_OF_ASC_NODE":301.7547,"ARG_OF_PERICENTER":76.5088,"MEAN_ANOMALY":283.6245,"EPHEMERIS_TYPE":0,"CLASSIFICATION_TYPE":"U","NORAD_CAT_ID":49284,"ELEMENT_SET_NO":999,"REV_AT_EPOCH":21248,"BSTAR":4.1634161e-5,"MEAN_MOTION_DOT":3.0e-7,"MEAN_MOTION_DDOT":0},{"OBJECT_NAME":"ONEWEB-0359","OBJECT_ID":"2021-090G","EPOCH":"2026-01-31T06:50:00.472416","MEAN_MOTION":13.20774405,"ECCENTRICITY":0.00020241,"INCLINATION":87.9221,"RA_OF_ASC_NODE":301.7528,"ARG_OF_PERICENTER":84.6596,"MEAN_ANOMALY":275.4768,"EPHEMERIS_TYPE":0,"CLASSIFICATION_TYPE":"U","NORAD_CAT_ID":49285,"ELEMENT_SET_NO":999,"REV_AT_EPOCH":21246,"BSTAR":1.3390355e-5,"MEAN_MOTION_DOT":1.8e-7,"MEAN_MOTION_DDOT":0},{"OBJECT_NAME":"ONEWEB-0360","OBJECT_ID":"2021-090H","EPOCH":"2026-01-31T06:36:21.767616","MEAN_MOTION":13.2077233,"ECCENTRICITY":0.00017751,"INCLINATION":87.9222,"RA_OF_ASC_NODE":301.7615,"ARG_OF_PERICENTER":81.025,"MEAN_ANOMALY":279.1084,"EPHEMERIS_TYPE":0,"CLASSIFICATION_TYPE":"U","NORAD_CAT_ID":49286,"ELEMENT_SET_NO":999,"REV_AT_EPOCH":21177,"BSTAR":-0.00092759504,"MEAN_MOTION_DOT":-3.64e-6,"MEAN_MOTION_DDOT":0},{"OBJECT_NAME":"ONEWEB-0361","OBJECT_ID":"2021-090J","EPOCH":"2026-01-31T06:09:05.373216","MEAN_MOTION":13.20772267,"ECCENTRICITY":0.00018018,"INCLINATION":87.9222,"RA_OF_ASC_NODE":301.7626,"ARG_OF_PERICENTER":72.0196,"MEAN_ANOMALY":288.1133,"EPHEMERIS_TYPE":0,"CLASSIFICATION_TYPE":"U","NORAD_CAT_ID":49287,"ELEMENT_SET_NO":999,"REV_AT_EPOCH":21222,"BSTAR":-0.0007995554,"MEAN_MOTION_DOT":-3.12e-6,"MEAN_MOTION_DDOT":0},{"OBJECT_NAME":"ONEWEB-0362","OBJECT_ID":"2021-090K","EPOCH":"2026-01-31T06:03:01.076256","MEAN_MOTION":13.19727495,"ECCENTRICITY":0.00016331,"INCLINATION":87.924,"RA_OF_ASC_NODE":332.2366,"ARG_OF_PERICENTER":86.9022,"MEAN_ANOMALY":273.2297,"EPHEMERIS_TYPE":0,"CLASSIFICATION_TYPE":"U","NORAD_CAT_ID":49288,"ELEMENT_SET_NO":999,"REV_AT_EPOCH":20885,"BSTAR":0.00028619011,"MEAN_MOTION_DOT":1.28e-6,"MEAN_MOTION_DDOT":0},{"OBJECT_NAME":"ONEWEB-0363","OBJECT_ID":"2021-090L","EPOCH":"2026-01-31T06:31:49.748448","MEAN_MOTION":13.20773791,"ECCENTRICITY":0.00019158,"INCLINATION":87.9224,"RA_OF_ASC_NODE":301.7602,"ARG_OF_PERICENTER":69.5737,"MEAN_ANOMALY":290.5602,"EPHEMERIS_TYPE":0,"CLASSIFICATION_TYPE":"U","NORAD_CAT_ID":49289,"ELEMENT_SET_NO":999,"REV_AT_EPOCH":21223,"BSTAR":-3.6125589e-5,"MEAN_MOTION_DOT":-2.0e-8,"MEAN_MOTION_DDOT":0},{"OBJECT_NAME":"ONEWEB-0364","OBJECT_ID":"2021-090M","EPOCH":"2026-01-31T05:37:17.199840","MEAN_MOTION":13.20774015,"ECCENTRICITY":0.00017505,"INCLINATION":87.9219,"RA_OF_ASC_NODE":301.7862,"ARG_OF_PERICENTER":74.1853,"MEAN_ANOMALY":285.9473,"EPHEMERIS_TYPE":0,"CLASSIFICATION_TYPE":"U","NORAD_CAT_ID":49290,"ELEMENT_SET_NO":999,"REV_AT_EPOCH":21336,"BSTAR":0.00045048375,"MEAN_MOTION_DOT":1.96e-6,"MEAN_MOTION_DDOT":0},{"OBJECT_NAME":"ONEWEB-0365","OBJECT_ID":"2021-090N","EPOCH":"2026-01-31T06:16:39.123552","MEAN_MOTION":13.19724286,"ECCENTRICITY":0.00016476,"INCLINATION":87.9252,"RA_OF_ASC_NODE":332.2088,"ARG_OF_PERICENTER":79.5828,"MEAN_ANOMALY":280.549,"EPHEMERIS_TYPE":0,"CLASSIFICATION_TYPE":"U","NORAD_CAT_ID":49291,"ELEMENT_SET_NO":999,"REV_AT_EPOCH":20836,"BSTAR":9.2779386e-5,"MEAN_MOTION_DOT":5.0e-7,"MEAN_MOTION_DDOT":0},{"OBJECT_NAME":"ONEWEB-0366","OBJECT_ID":"2021-090P","EPOCH":"2026-01-31T06:31:09.636384","MEAN_MOTION":13.14503776,"ECCENTRICITY":0.00017479,"INCLINATION":87.9025,"RA_OF_ASC_NODE":317.0095,"ARG_OF_PERICENTER":77.8576,"MEAN_ANOMALY":282.2749,"EPHEMERIS_TYPE":0,"CLASSIFICATION_TYPE":"U","NORAD_CAT_ID":49292,"ELEMENT_SET_NO":999,"REV_AT_EPOCH":20957,"BSTAR":-0.00028659439,"MEAN_MOTION_DOT":-9.3e-7,"MEAN_MOTION_DDOT":0},{"OBJECT_NAME":"ONEWEB-0367","OBJECT_ID":"2021-090Q","EPOCH":"2026-01-31T01:02:16.239264","MEAN_MOTION":13.20774735,"ECCENTRICITY":0.00015191,"INCLINATION":87.9227,"RA_OF_ASC_NODE":301.8056,"ARG_OF_PERICENTER":81.7982,"MEAN_ANOMALY":278.3323,"EPHEMERIS_TYPE":0,"CLASSIFICATION_TYPE":"U","NORAD_CAT_ID":49293,"ELEMENT_SET_NO":999,"REV_AT_EPOCH":21172,"BSTAR":9.0285711e-5,"MEAN_MOTION_DOT":5.0e-7,"MEAN_MOTION_DDOT":0}]
