ONEWEB-0355             
1 49218U 21083AJ  26031.23901971  .00000328  00000+0  86353-3 0  9992
2 49218  87.9006 347.4700 0001741  88.5477 271.5851 13.13471173212929
ONEWEB-0357             
1 49219U 21083AK  26031.23737918  .00000207  00000+0  47695-3 0  9993
2 49219  87.9221 301.7608 0001475  79.4350 280.6949 13.20775158218734
ONEWEB-0332             
1 49279U 21090A   26031.28273278 -.00000052  00000+0 -17442-3 0  9993
2 49279  87.9019 317.0035 0001490  74.1186 286.0108 13.14504030209598
ONEWEB-0347             
1 49280U 21090B   26031.30365844  .00000012  00000+0 -26957-5 0  9997
2 49280  87.9221 301.7560 0001586  67.4746 292.6555 13.20770011212977
ONEWEB-0349             
1 49281U 21090C   26031.25947691  .00000040  00000+0  67604-4 0  9991
2 49281  87.9225 301.7646 0001659  79.4677 280.6644 13.20774074211758
ONEWEB-0353             
1 49282U 21090D   26031.27481150 -.00000075  00000+0 -23673-3 0  9994
2 49282  87.9032 316.9961 0001497  69.9872 290.1418 13.14503280209590
ONEWEB-0356             
1 49283U 21090E   26031.25790597  .00000266  00000+0  62243-3 0  9997
2 49283  87.9223 301.7587 0002266  57.4268 302.7084 13.20775088211759
ONEWEB-0358             
1 49284U 21090F   26031.28788421  .00000030  00000+0  41634-4 0  9995
2 49284  87.9225 301.7547 0001787  76.5088 283.6245 13.20774115212484
ONEWEB-0359             
1 49285U 21090G   26031.28472769  .00000018  00000+0  13390-4 0  9995
2 49285  87.9221 301.7528 0002024  84.6596 275.4768 13.20774405212468
ONEWEB-0360             
1 49286U 21090H   26031.27525194 -.00000364  00000+0 -92760-3 0  9999
2 49286  87.9222 301.7615 0001775  81.0250 279.1084 13.20772330211777
ONEWEB-0361             
1 49287U 21090J   26031.25631219 -.00000312  00000+0 -79956-3 0  9999
2 49287  87.9222 301.7626 0001801  72.0196 288.1133 13.20772267212224
ONEWEB-0362             
1 49288U 21090K   26031.25209579  .00000128  00000+0  28619-3 0  9993
2 49288  87.9240 332.2366 0001633  86.9022 273.2297 13.19727495208851
ONEWEB-0363             
1 49289U 21090L   26031.27210357 -.00000002  00000+0 -36126-4 0  9998
2 49289  87.9224 301.7602 0001915  69.5737 290.5602 13.20773791212232
ONEWEB-0364             
1 49290U 21090M   26031.23422685  .00000196  00000+0  45048-3 0  9999
2 49290  87.9219 301.7862 0001750  74.1853 285.9473 13.20774015213363
ONEWEB-0365             
1 49291U 21090N   26031.26156393  .00000050  00000+0  92779-4 0  9996
2 49291  87.9252 332.2088 0001647  79.5828 280.5490 13.19724286208363
ONEWEB-0366             
1 49292U 21090P   26031.27163931 -.00000093  00000+0 -28659-3 0  9998
2 49292  87.9025 317.0095 0001747  77.8576 282.2749 13.14503776209577
ONEWEB-0367             
1 49293U 21090Q   26031.04324351  .00000050  00000+0  90286-4 0  9996
2 49293  87.9227 301.8056 0001519  81.7982 278.3323 13.20774735211728
